[{"OBJECT_NAME":"OBJECT A","OBJECT_ID":"2023-104A","EPOCH":"2026-03-06T18:47:13.750656","MEAN_MOTION":15.33350758,"ECCENTRICITY":0.00093331,"INCLINATION":97.2792,"RA_OF_ASC_NODE":135.5625,"ARG_OF_PERICENTER":122.1915,"MEAN_ANOMALY":238.0234,"EPHEMERIS_TYPE":0,"CLASSIFICATION_TYPE":"U","NORAD_CAT_ID":57424,"ELEMENT_SET_NO":999,"REV_AT_EPOCH":14634,"BSTAR":0.00048200218,"MEAN_MOTION_DOT":0.00015492,"MEAN_MOTION_DDOT":0},{"OBJECT_NAME":"STARLINK-31116","OBJECT_ID":"2024-027S","EPOCH":"2026-03-09T22:14:46.341600","MEAN_MOTION":15.3018636,"ECCENTRICITY":0.00010289,"INCLINATION":53.1607,"RA_OF_ASC_NODE":308.5889,"ARG_OF_PERICENTER":104.816,"MEAN_ANOMALY":255.2955,"EPHEMERIS_TYPE":0,"CLASSIFICATION_TYPE":"U","NORAD_CAT_ID":58947,"ELEMENT_SET_NO":999,"REV_AT_EPOCH":11736,"BSTAR":4.776632e-5,"MEAN_MOTION_DOT":1.055e-5,"MEAN_MOTION_DDOT":0}]
